[{"OBJECT_NAME":"239ALFEROV (RS61S)","OBJECT_ID":"2025-155F","EPOCH":"2026-03-09T21:46:33.382848","MEAN_MOTION":15.29933217,"ECCENTRICITY":0.00084878,"INCLINATION":97.4469,"RA_OF_ASC_NODE":37.6373,"ARG_OF_PERICENTER":151.5904,"MEAN_ANOMALY":208.58,"EPHEMERIS_TYPE":0,"CLASSIFICATION_TYPE":"U","NORAD_CAT_ID":64881,"ELEMENT_SET_NO":999,"REV_AT_EPOCH":6561,"BSTAR":0.00067233359,"MEAN_MOTION_DOT":0.00019457,"MEAN_MOTION_DDOT":0},{"OBJECT_NAME":"STARLINK-35733","OBJECT_ID":"2025-244U","EPOCH":"2026-03-09T16:20:11.037984","MEAN_MOTION":15.30198138,"ECCENTRICITY":0.00010882,"INCLINATION":53.1564,"RA_OF_ASC_NODE":230.2687,"ARG_OF_PERICENTER":70.6872,"MEAN_ANOMALY":289.4247,"EPHEMERIS_TYPE":0,"CLASSIFICATION_TYPE":"U","NORAD_CAT_ID":66224,"ELEMENT_SET_NO":999,"REV_AT_EPOCH":2165,"BSTAR":0.00033143877,"MEAN_MOTION_DOT":9.469e-5,"MEAN_MOTION_DDOT":0}]
